H1 CPF  1  DLR 2022 04 24 10  6142 technosat            
H2  1704205 6203    42829 2022 04 24 00 00 00 2022 05 01 00 00 00    60 1 1  0 0 0
H9
10 0 59697  50400.000000  0       -212467.142      -6934363.322        789123.743
10 0 59697  50460.000000  0       -299322.592      -6865241.748       1233487.306
10 0 59697  50520.000000  0       -384186.054      -6766528.050       1672631.140
10 0 59697  50580.000000  0       -466443.709      -6638652.117       2104695.681
10 0 59697  50640.000000  0       -545496.972      -6482172.664       2527850.942
10 0 59697  50700.000000  0       -620766.137      -6297774.674       2940304.479
10 0 59697  50760.000000  0       -691693.893      -6086266.144       3340309.105
10 0 59697  50820.000000  0       -757748.720      -5848574.368       3726170.260
10 0 59697  50880.000000  0       -818428.211      -5585741.776       4096253.231
10 0 59697  50940.000000  0       -873262.198      -5298921.164       4448990.131
10 0 59697  51000.000000  0       -921815.653      -4989370.432       4782886.505
10 0 59697  51060.000000  0       -963691.381      -4658446.926       5096527.616
10 0 59697  51120.000000  0       -998532.528      -4307601.339       5388584.438
10 0 59697  51180.000000  0      -1026024.876      -3938371.158       5657819.269
10 0 59697  51240.000000  0      -1045898.882      -3552373.681       5903090.895
10 0 59697  51300.000000  0      -1057931.450      -3151298.751       6123359.249
10 0 59697  51360.000000  0      -1061947.424      -2736901.246       6317689.618
10 0 59697  51420.000000  0      -1057820.837      -2310993.393       6485256.431
10 0 59697  51480.000000  0      -1045475.898      -1875436.872       6625346.691
10 0 59697  51540.000000  0      -1024887.710      -1432134.668       6737362.966
10 0 59697  51600.000000  0       -996082.747       -983022.729       6820825.906
10 0 59697  51660.000000  0       -959139.050       -530061.498       6875376.237
10 0 59697  51720.000000  0       -914186.122        -75227.399       6900776.293
10 0 59697  51780.000000  0       -861404.515        379495.750       6896911.122
10 0 59697  51840.000000  0       -801025.130        832125.412       6863789.091
10 0 59697  51900.000000  0       -733328.224       1280688.977       6801541.966
10 0 59697  51960.000000  0       -658642.157       1723232.362       6710424.525
10 0 59697  52020.000000  0       -577341.848       2157828.585       6590813.681
10 0 59697  52080.000000  0       -489846.968       2582586.198       6443207.086
10 0 59697  52140.000000  0       -396619.879       2995657.585       6268221.313
10 0 59697  52200.000000  0       -298163.332       3395247.195       6066589.517
10 0 59697  52260.000000  0       -195017.910       3779619.525       5839158.549
10 0 59697  52320.000000  0        -87759.227       4147106.851       5586885.619
10 0 59697  52380.000000  0         23005.107       4496116.691       5310834.524
10 0 59697  52440.000000  0        136638.732       4825139.058       5012171.439
10 0 59697  52500.000000  0        252480.011       5132753.456       4692160.117
10 0 59697  52560.000000  0        369845.647       5417635.321       4352156.492
10 0 59697  52620.000000  0        488034.405       5678561.881       3993602.976
10 0 59697  52680.000000  0        606331.020       5914417.657       3618022.690
10 0 59697  52740.000000  0        724010.244       6124200.001       3227013.278
10 0 59697  52800.000000  0        840341.119       6307024.156       2822239.755
10 0 59697  52860.000000  0        954591.271       6462127.029       2405426.842
10 0 59697  52920.000000  0       1066031.046       6588870.466       1978351.706
10 0 59697  52980.000000  0       1173937.848       6686744.389       1542836.135
10 0 59697  53040.000000  0       1277600.430       6755368.965       1100738.349
10 0 59697  53100.000000  0       1376323.127       6794496.141        653944.812
10 0 59697  53160.000000  0       1469430.079       6804010.625        204361.854
10 0 59697  53220.000000  0       1556269.315       6783930.131       -246092.844
10 0 59697  53280.000000  0       1636216.696       6734404.965       -695498.749
10 0 59697  53340.000000  0       1708679.751       6655716.999      -1141940.981
10 0 59697  53400.000000  0       1773101.341       6548277.990      -1583518.783
10 0 59697  53460.000000  0       1828963.134       6412627.266      -2018353.915
10 0 59697  53520.000000  0       1875788.876       6249428.785      -2444598.906
10 0 59697  53580.000000  0       1913147.431       6059467.592      -2860445.138
10 0 59697  53640.000000  0       1940655.569       5843645.699      -3264130.710
10 0 59697  53700.000000  0       1957980.495       5602977.389      -3653948.032
10 0 59697  53760.000000  0       1964842.117       5338584.006      -4028251.095
10 0 59697  53820.000000  0       1961014.988       5051688.264      -4385462.375
10 0 59697  53880.000000  0       1946329.964       4743608.167      -4724079.359
10 0 59697  53940.000000  0       1920675.549       4415750.541      -5042680.679
10 0 59697  54000.000000  0       1883998.971       4069604.261      -5339931.820
10 0 59697  54060.000000  0       1836306.950       3706733.199      -5614590.455
10 0 59697  54120.000000  0       1777666.132       3328768.830      -5865511.373
10 0 59697  54180.000000  0       1708203.187       2937402.628      -6091650.866
10 0 59697  54240.000000  0       1628104.633       2534378.316      -6292070.671
10 0 59697  54300.000000  0       1537616.358       2121483.984      -6465941.436
10 0 59697  54360.000000  0       1437042.883       1700544.167      -6612545.746
10 0 59697  54420.000000  0       1326746.336       1273411.792      -6731280.800
10 0 59697  54480.000000  0       1207145.087        841960.031      -6821660.534
10 0 59697  54540.000000  0       1078712.108        408074.213      -6883317.283
10 0 59697  54600.000000  0        941973.079        -26356.299      -6916003.027
10 0 59697  54660.000000  0        797504.204       -459446.210      -6919590.128
10 0 59697  54720.000000  0        645929.781       -889322.242      -6894071.592
10 0 59697  54780.000000  0        487919.548      -1314130.991      -6839560.944
10 0 59697  54840.000000  0        324185.811      -1732046.638      -6756291.651
10 0 59697  54900.000000  0        155480.332      -2141278.514      -6644616.226
10 0 59697  54960.000000  0        -17409.055      -2540078.639      -6505004.927
10 0 59697  55020.000000  0       -193662.047      -2926749.114      -6338043.875
10 0 59697  55080.000000  0       -372429.640      -3299649.205      -6144432.682
10 0 59697  55140.000000  0       -552838.045      -3657202.160      -5924981.742
10 0 59697  55200.000000  0       -733992.797      -3997901.811      -5680609.134
10 0 59697  55260.000000  0       -914983.022      -4320318.936      -5412337.087
10 0 59697  55320.000000  0      -1094885.863      -4623107.324      -5121288.011
10 0 59697  55380.000000  0      -1272771.027      -4905009.505      -4808680.087
10 0 59697  55440.000000  0      -1447705.441      -5164862.113      -4475822.463
10 0 59697  55500.000000  0      -1618757.982      -5401600.866      -4124110.029
10 0 59697  55560.000000  0      -1785004.259      -5614265.122      -3755017.824
10 0 59697  55620.000000  0      -1945531.431      -5802001.994      -3370095.074
10 0 59697  55680.000000  0      -2099443.024      -5964070.014      -2970958.899
10 0 59697  55740.000000  0      -2245863.746      -6099842.324      -2559287.690
10 0 59697  55800.000000  0      -2383944.251      -6208809.382      -2136814.161
10 0 59697  55860.000000  0      -2512865.831      -6290581.131      -1705318.116
10 0 59697  55920.000000  0      -2631845.013      -6344888.635      -1266618.963
10 0 59697  55980.000000  0      -2740138.032      -6371585.133       -822567.976
10 0 59697  56040.000000  0      -2837045.128      -6370646.491       -375040.394
10 0 59697  56100.000000  0      -2921914.659      -6342171.074         74072.603
10 0 59697  56160.000000  0      -2994146.997      -6286379.051        522872.007
10 0 59697  56220.000000  0      -3053198.193      -6203611.123        969459.161
10 0 59697  56280.000000  0      -3098583.385      -6094326.679       1411943.960
10 0 59697  56340.000000  0      -3129879.923      -5959101.365       1848453.036
10 0 59697  56400.000000  0      -3146730.182      -5798624.090       2277137.831
10 0 59697  56460.000000  0      -3148844.061      -5613693.525       2696182.565
10 0 59697  56520.000000  0      -3136001.149      -5405214.099       3103812.046
10 0 59697  56580.000000  0      -3108052.534      -5174191.504       3498299.287
10 0 59697  56640.000000  0      -3064922.263      -4921727.757       3877972.895
10 0 59697  56700.000000  0      -3006608.457      -4649015.830       4241224.205
10 0 59697  56760.000000  0      -2933184.054      -4357333.875       4586514.098
10 0 59697  56820.000000  0      -2844797.221      -4048039.097       4912379.514
10 0 59697  56880.000000  0      -2741671.352      -3722561.288       5217439.640
10 0 59697  56940.000000  0      -2624104.651      -3382396.052       5500401.680
10 0 59697  57000.000000  0      -2492469.376      -3029097.829       5760066.199
10 0 59697  57060.000000  0      -2347210.735      -2664272.724       5995332.102
10 0 59697  57120.000000  0      -2188845.408      -2289571.169       6205201.209
10 0 59697  57180.000000  0      -2017959.734      -1906680.422       6388782.422
10 0 59697  57240.000000  0      -1835207.516      -1517316.907       6545295.470
10 0 59697  57300.000000  0      -1641307.487      -1123218.400       6674074.108
10 0 59697  57360.000000  0      -1437040.482       -726136.223       6774568.757
10 0 59697  57420.000000  0      -1223246.355       -327827.524       6846348.679
10 0 59697  57480.000000  0      -1000820.601         69952.384       6889103.855
10 0 59697  57540.000000  0       -770710.647        465457.758       6902646.401
99
